NORAD_CAT_ID,OBJECT_NAME,OBJECT_TYPE,EPOCH,MEAN_MOTION,ECCENTRICITY,INCLINATION,RA_OF_ASC_NODE,ARG_OF_PERICENTER,MEAN_ANOMALY,BSTAR,MEAN_MOTION_DOT,MEAN_MOTION_DDOT,TLE_LINE0,TLE_LINE1,TLE_LINE2,SEMIMAJOR_AXIS,PERIOD,APOGEE,PERIGEE,DECAYED
53184.0,STARLINK-4257,PAYLOAD,2024-08-05 16:19:28,15.08834733,0.0001526,53.2156,211.9568,92.2891,267.8276,2.9773e-05,1.86e-06,0.0,0 STARLINK-4257,1 53184U 22083BE  24218.68018688  .00000186  00000-0  29773-4 0  9995,2 53184  53.2156 211.9568 0001526  92.2891 267.8276 15.08834733114840,6917.896,95.438,540.817,538.706,0.0
53184.0,STARLINK-4257,PAYLOAD,2024-08-06 06:37:57,15.08828976,0.0001757,53.2168,209.2864,112.6358,247.4821,-3.0134e-05,-7.67e-06,0.0,0 STARLINK-4257,1 53184U 22083BE  24219.27635520 -.00000767  00000-0 -30134-4 0  9991,2 53184  53.2168 209.2864 0001757 112.6358 247.4821 15.08828976114935,6917.914,95.438,540.995,538.564,0.0
53184.0,STARLINK-4257,PAYLOAD,2024-08-06 16:10:15,15.08832617,0.0001662,53.2167,207.5021,108.9499,251.1673,9.325e-09,-2.88e-06,0.0,0 STARLINK-4257,1 53184U 22083BE  24219.67379426 -.00000288  00000-0  93250-8 0  9994,2 53184  53.2167 207.5021 0001662 108.9499 251.1673 15.08832617114360,6917.903,95.438,540.918,538.618,0.0
53184.0,STARLINK-4257,PAYLOAD,2024-08-07 08:04:06,15.08841641,0.0001574,53.2164,204.5279,106.3753,253.7412,8.1901e-05,1.016e-05,0.0,0 STARLINK-4257,1 53184U 22083BE  24220.33618759  .00001016  00000-0  81901-4 0  9999,2 53184  53.2164 204.5279 0001574 106.3753 253.7412 15.08841641115093,6917.875,95.437,540.829,538.651,0.0
53184.0,STARLINK-4257,PAYLOAD,2024-08-08 07:54:53,15.08844262,0.0001423,53.2157,200.0652,104.7776,255.3374,0.00017814,2.549e-05,0.0,0 STARLINK-4257,1 53184U 22083BE  24221.32978577  .00002549  00000-0  17814-3 0  9999,2 53184  53.2157 200.0652 0001423 104.7776 255.3374 15.08844262114615,6917.867,95.437,540.717,538.748,0.0
53184.0,STARLINK-4257,PAYLOAD,2024-08-08 22:13:22,15.08841442,0.0001842,53.2174,197.3883,114.0358,246.0827,3.6524e-05,2.93e-06,0.0,0 STARLINK-4257,1 53184U 22083BE  24221.92595186  .00000293  00000-0  36524-4 0  9990,2 53184  53.2174 197.3883 0001842 114.0358 246.0827 15.08841442114700,6917.876,95.437,541.015,538.467,0.0
53184.0,STARLINK-4257,PAYLOAD,2024-08-09 04:34:54,15.08845416,0.000174,53.2161,196.1987,105.5888,254.5296,3.2981e-05,2.37e-06,0.0,0 STARLINK-4257,1 53184U 22083BE  24222.19091016  .00000237  00000-0  32981-4 0  9994,2 53184  53.2161 196.1987 0001740 105.5888 254.5296 15.08845416115371,6917.864,95.437,540.933,538.525,0.0
53184.0,STARLINK-4257,PAYLOAD,2024-08-09 06:10:17,15.08847983,0.0001494,53.2161,195.9015,100.3262,259.7899,5.8394e-05,6.42e-06,0.0,0 STARLINK-4257,1 53184U 22083BE  24222.25714782  .00000642  00000-0  58394-4 0  9999,2 53184  53.2161 195.9015 0001494 100.3262 259.7899 15.08847983114753,6917.856,95.437,540.755,538.687,0.0
53184.0,STARLINK-4257,PAYLOAD,2024-08-09 15:42:36,15.08837872,0.0001337,53.2149,194.1163,109.1816,250.9321,-1.1844e-05,-4.76e-06,0.0,0 STARLINK-4257,1 53184U 22083BE  24222.65459472 -.00000476  00000-0 -11844-4 0  9991,2 53184  53.2149 194.1163 0001337 109.1816 250.9321 15.08837872115448,6917.887,95.438,540.677,538.827,0.0
53184.0,STARLINK-4257,PAYLOAD,2024-08-10 04:25:41,15.08845227,0.0001582,53.2164,191.7396,83.3731,276.7441,-7.3714e-06,-4.05e-06,0.0,0 STARLINK-4257,1 53184U 22083BE  24223.18451158 -.00000405  00000-0 -73714-5 0  9990,2 53184  53.2164 191.7396 0001582  83.3731 276.7441 15.08845227115528,6917.864,95.437,540.824,538.635,0.0
53184.0,STARLINK-4257,PAYLOAD,2024-08-11 04:16:28,15.08844714,0.0001412,53.2168,187.2795,95.1292,264.9861,6.744e-05,7.86e-06,0.0,0 STARLINK-4257,1 53184U 22083BE  24224.17810957  .00000786  00000-0  67440-4 0  9994,2 53184  53.2168 187.2795 0001412  95.1292 264.9861 15.08844714115042,6917.866,95.437,540.708,538.754,0.0
53184.0,STARLINK-4257,PAYLOAD,2024-08-12 04:07:15,15.08853106,0.0001353,53.2169,182.8196,93.5623,266.5524,0.00015673,2.208e-05,0.0,0 STARLINK-4257,1 53184U 22083BE  24225.17170396  .00002208  00000-0  15673-3 0  9992,2 53184  53.2169 182.8196 0001353  93.5623 266.5524 15.08853106115828,6917.84,95.437,540.641,538.769,0.0
53184.0,STARLINK-4257,PAYLOAD,2024-08-12 07:18:01,15.08858182,0.0001464,53.2172,182.2217,71.1953,288.9197,0.00014858,2.079e-05,0.0,0 STARLINK-4257,1 53184U 22083BE  24225.30418088  .00002079  00000-0  14858-3 0  9990,2 53184  53.2172 182.2217 0001464  71.1953 288.9197 15.08858182115217,6917.825,95.436,540.703,538.677,0.0
53184.0,STARLINK-4257,PAYLOAD,2024-08-12 21:36:29,15.08849652,0.0001361,53.2168,179.544,111.1076,249.0062,0.0001256,1.712e-05,0.0,0 STARLINK-4257,1 53184U 22083BE  24225.90034352  .00001712  00000-0  12560-3 0  9995,2 53184  53.2168 179.5440 0001361 111.1076 249.0062 15.08849652115307,6917.851,95.437,540.657,538.774,0.0
53184.0,STARLINK-4257,PAYLOAD,2024-08-13 03:58:04,15.08805236,0.0001503,53.2161,178.3599,96.1734,263.9429,-0.00049486,-8.147e-05,0.0,0 STARLINK-4257,1 53184U 22083BE  24226.16532913 -.00008147  00000-0 -49486-3 0  9998,2 53184  53.2161 178.3599 0001503  96.1734 263.9429 15.08805236115978,6917.987,95.44,540.891,538.812,0.0
53184.0,STARLINK-4257,PAYLOAD,2024-08-13 13:30:24,15.08816209,0.0001287,53.2165,176.5727,92.2276,267.8864,-0.00014946,-2.664e-05,0.0,0 STARLINK-4257,1 53184U 22083BE  24226.56277875 -.00002664  00000-0 -14946-3 0  9996,2 53184  53.2165 176.5727 0001287  92.2276 267.8864 15.08816209115408,6917.953,95.439,540.708,538.928,0.0
53184.0,STARLINK-4257,PAYLOAD,2024-08-13 21:27:19,15.0882334,0.0001294,53.2156,175.0853,77.5115,282.6022,-0.00030859,-5.193e-05,0.0,0 STARLINK-4257,1 53184U 22083BE  24226.89397227 -.00005193  00000-0 -30859-3 0  9997,2 53184  53.2156 175.0853 0001294  77.5115 282.6022 15.08823340116088,6917.931,95.439,540.691,538.901,0.0
53184.0,STARLINK-4257,PAYLOAD,2024-08-14 03:48:51,15.08828657,0.0001344,53.2152,173.8978,89.3448,270.7699,-1.4957e-05,-5.26e-06,0.0,0 STARLINK-4257,1 53184U 22083BE  24227.15892948 -.00000526  00000-0 -14957-4 0  9994,2 53184  53.2152 173.8978 0001344  89.3448 270.7699 15.08828657116123,6917.915,95.438,540.71,538.85,0.0
53184.0,STARLINK-4257,PAYLOAD,2024-08-14 13:21:10,15.0883785,0.0001346,53.2149,172.1136,91.6276,268.487,0.0009568,0.00014971,0.0,0 STARLINK-4257,1 53184U 22083BE  24227.55637661  .00014971  00000-0  95680-3 0  9995,2 53184  53.2149 172.1136 0001346  91.6276 268.4870 15.08837850115550,6917.887,95.438,540.683,538.821,0.0
53184.0,STARLINK-4257,PAYLOAD,2024-08-15 03:39:38,15.08877382,0.0001315,53.2143,169.4379,94.9401,265.1742,0.0013394,0.00021115,0.0,0 STARLINK-4257,1 53184U 22083BE  24228.15252552  .00021115  00000-0  13394-2 0  9993,2 53184  53.2143 169.4379 0001315  94.9401 265.1742 15.08877382116270,6917.766,95.435,540.541,538.721,0.0
53184.0,STARLINK-4257,PAYLOAD,2024-08-16 03:30:24,15.08857258,0.0001224,53.2133,164.9752,123.952,236.1589,0.00091833,0.00014364,0.0,0 STARLINK-4257,1 53184U 22083BE  24229.14611880  .00014364  00000-0  91833-3 0  9999,2 53184  53.2133 164.9752 0001224 123.9520 236.1589 15.08857258116422,6917.828,95.436,540.539,538.846,0.0
53184.0,STARLINK-4257,PAYLOAD,2024-08-17 01:45:48,15.08846182,0.0001343,53.214,160.8091,89.3128,270.8018,0.0011967,0.00018812,0.0,0 STARLINK-4257,1 53184U 22083BE  24230.07348170  .00018812  00000-0  11967-2 0  9993,2 53184  53.2140 160.8091 0001343  89.3128 270.8018 15.08846182116563,6917.861,95.437,540.656,538.797,0.0
53184.0,STARLINK-4257,PAYLOAD,2024-08-17 04:56:35,15.08849818,0.0001349,53.2139,160.215,91.8236,268.291,0.0011744,0.00018457,0.0,0 STARLINK-4257,1 53184U 22083BE  24230.20596084  .00018457  00000-0  11744-2 0  9995,2 53184  53.2139 160.2150 0001349  91.8236 268.2910 15.08849818115958,6917.85,95.437,540.649,538.782,0.0
53184.0,STARLINK-4257,PAYLOAD,2024-08-18 04:47:22,15.08845061,0.0001625,53.2164,155.7539,91.2545,268.8634,0.00038973,5.921e-05,0.0,0 STARLINK-4257,1 53184U 22083BE  24231.19956329  .00005921  00000-0  38973-3 0  9992,2 53184  53.2164 155.7539 0001625  91.2545 268.8634 15.08845061116732,6917.865,95.437,540.854,538.606,0.0
53184.0,STARLINK-4257,PAYLOAD,2024-08-18 22:16:36,15.08851419,0.0001989,53.2166,152.4803,126.3844,233.7332,0.00051672,7.948e-05,0.0,0 STARLINK-4257,1 53184U 22083BE  24231.92819905  .00007948  00000-0  51672-3 0  9993,2 53184  53.2166 152.4803 0001989 126.3844 233.7332 15.08851419116210,6917.845,95.437,541.086,538.335,0.0
53184.0,STARLINK-4257,PAYLOAD,2024-08-19 04:38:08,15.08855258,0.0001593,53.2167,151.2937,96.8856,263.2318,0.00047985,7.36e-05,0.0,0 STARLINK-4257,1 53184U 22083BE  24232.19315818  .00007360  00000-0  47985-3 0  9997,2 53184  53.2167 151.2937 0001593  96.8856 263.2318 15.08855258116252,6917.834,95.437,540.801,538.597,0.0
53184.0,STARLINK-4257,PAYLOAD,2024-08-20 04:28:56,15.08837704,0.000111,53.2168,146.836,77.8789,282.2327,0.00016323,2.311e-05,0.0,0 STARLINK-4257,1 53184U 22083BE  24233.18676530  .00002311  00000-0  16323-3 0  9991,2 53184  53.2168 146.8360 0001110  77.8789 282.2327 15.08837704117036,6917.887,95.438,540.52,538.985,0.0
53184.0,STARLINK-4257,PAYLOAD,2024-08-21 01:08:56,15.08862392,0.0001023,53.2165,142.9718,75.6124,284.4982,0.00098593,0.00015448,0.0,0 STARLINK-4257,1 53184U 22083BE  24234.04788104  .00015448  00000-0  98593-3 0  9992,2 53184  53.2165 142.9718 0001023  75.6124 284.4982 15.08862392117165,6917.812,95.436,540.385,538.969,0.0
53184.0,STARLINK-4257,PAYLOAD,2024-08-22 00:59:44,15.08839941,8.9e-05,53.2155,138.5109,122.326,237.7818,0.00018064,2.588e-05,0.0,0 STARLINK-4257,1 53184U 22083BE  24235.04148402  .00002588  00000-0  18064-3 0  9990,2 53184  53.2155 138.5109 0000890 122.3260 237.7818 15.08839941117311,6917.881,95.438,540.361,539.13,0.0
